{
  "norad_id": 45425,
  "name": "ONEWEB-0067",
  "history": [
    {
      "epoch": "2026-03-28T07:25:46.862688Z",
      "apogee_km": 1219.1825329855837,
      "perigee_km": 1216.1771720897077,
      "latitude_deg": 3.955403314168539e-05,
      "longitude_deg": 99.87737826997474,
      "height_km": 1220.428319135723,
      "semi_major_axis_km": 7595.816852537645,
      "eccentricity": 0.00019783,
      "inclination_deg": 87.8913,
      "raan_deg": 37.0545,
      "arg_perigee_deg": 84.7532,
      "mean_anomaly_deg": 275.3822,
      "mean_motion_rev_day": 13.11417682
    },
    {
      "epoch": "2026-03-30T03:22:35.678208Z",
      "apogee_km": 1218.9306109208474,
      "perigee_km": 1216.4209543774596,
      "latitude_deg": -1.9816268726845258e-05,
      "longitude_deg": 158.50534372501562,
      "height_km": 1220.4352628907532,
      "semi_major_axis_km": 7595.812782649153,
      "eccentricity": 0.0001652,
      "inclination_deg": 87.8917,
      "raan_deg": 36.6907,
      "arg_perigee_deg": 84.1915,
      "mean_anomaly_deg": 275.9401,
      "mean_motion_rev_day": 13.11418736
    },
    {
      "epoch": "2026-03-30T05:12:27.715680Z",
      "apogee_km": 1218.957183322117,
      "perigee_km": 1216.3964825627554,
      "latitude_deg": -1.259371714513275e-05,
      "longitude_deg": 130.94811978910445,
      "height_km": 1220.4401325364197,
      "semi_major_axis_km": 7595.8138329424355,
      "eccentricity": 0.00016856,
      "inclination_deg": 87.8918,
      "raan_deg": 36.6755,
      "arg_perigee_deg": 84.4821,
      "mean_anomaly_deg": 275.6499,
      "mean_motion_rev_day": 13.11418464
    },
    {
      "epoch": "2026-03-30T14:21:47.731104Z",
      "apogee_km": 1218.9639929212417,
      "perigee_km": 1216.3773165824932,
      "latitude_deg": -1.8438625128609117e-05,
      "longitude_deg": -6.8370830658471,
      "height_km": 1220.4401265609938,
      "semi_major_axis_km": 7595.807654751868,
      "eccentricity": 0.00017027,
      "inclination_deg": 87.8921,
      "raan_deg": 36.5997,
      "arg_perigee_deg": 84.8134,
      "mean_anomaly_deg": 275.3188,
      "mean_motion_rev_day": 13.11420064
    },
    {
      "epoch": "2026-03-30T19:51:23.839200Z",
      "apogee_km": 1218.975521701991,
      "perigee_km": 1216.3692475859316,
      "latitude_deg": 3.410117622600327e-05,
      "longitude_deg": -89.50863569409158,
      "height_km": 1220.4413349069916,
      "semi_major_axis_km": 7595.809384643961,
      "eccentricity": 0.00017156,
      "inclination_deg": 87.8923,
      "raan_deg": 36.5542,
      "arg_perigee_deg": 84.8308,
      "mean_anomaly_deg": 275.3016,
      "mean_motion_rev_day": 13.11419616
    },
    {
      "epoch": "2026-03-31T21:29:33.574272Z",
      "apogee_km": 1219.2398312576806,
      "perigee_km": 1216.2106014058072,
      "latitude_deg": 2.9426778792120334e-05,
      "longitude_deg": -115.31293185952106,
      "height_km": 1220.3428757613715,
      "semi_major_axis_km": 7595.862216331743,
      "eccentricity": 0.0001994,
      "inclination_deg": 87.8941,
      "raan_deg": 36.3433,
      "arg_perigee_deg": 79.8,
      "mean_anomaly_deg": 280.3353,
      "mean_motion_rev_day": 13.11405934
    },
    {
      "epoch": "2026-04-01T13:58:31.511424Z",
      "apogee_km": 1219.3235659180427,
      "perigee_km": 1216.7332735099199,
      "latitude_deg": -5.214782519970729e-05,
      "longitude_deg": -3.3688616939868985,
      "height_km": 1220.7461362059141,
      "semi_major_axis_km": 7596.165419713981,
      "eccentricity": 0.0001705,
      "inclination_deg": 87.8922,
      "raan_deg": 36.2057,
      "arg_perigee_deg": 82.5227,
      "mean_anomaly_deg": 277.6094,
      "mean_motion_rev_day": 13.11327417
    },
    {
      "epoch": "2026-04-02T21:06:26.116416Z",
      "apogee_km": 1219.5464275998065,
      "perigee_km": 1217.0110478831775,
      "latitude_deg": -2.9305996873102944e-05,
      "longitude_deg": -111.88231954966723,
      "height_km": 1221.0552488747994,
      "semi_major_axis_km": 7596.415737741491,
      "eccentricity": 0.00016688,
      "inclination_deg": 87.8919,
      "raan_deg": 35.9483,
      "arg_perigee_deg": 85.0354,
      "mean_anomaly_deg": 275.0964,
      "mean_motion_rev_day": 13.11262601
    },
    {
      "epoch": "2026-04-03T20:54:52.758144Z",
      "apogee_km": 1219.5501800011289,
      "perigee_km": 1217.0281665116072,
      "latitude_deg": -3.710862931849592e-05,
      "longitude_deg": -110.16816221171932,
      "height_km": 1221.0727063197755,
      "semi_major_axis_km": 7596.426173256367,
      "eccentricity": 0.000166,
      "inclination_deg": 87.8926,
      "raan_deg": 35.7512,
      "arg_perigee_deg": 85.3284,
      "mean_anomaly_deg": 274.8033,
      "mean_motion_rev_day": 13.11259899
    },
    {
      "epoch": "2026-04-04T06:04:16.909536Z",
      "apogee_km": 1219.547008934982,
      "perigee_km": 1217.0359335395297,
      "latitude_deg": 4.0733441295673036e-05,
      "longitude_deg": 112.02945692337414,
      "height_km": 1221.0793363235257,
      "semi_major_axis_km": 7596.4284712372555,
      "eccentricity": 0.00016528,
      "inclination_deg": 87.8927,
      "raan_deg": 35.6755,
      "arg_perigee_deg": 85.5063,
      "mean_anomaly_deg": 274.6254,
      "mean_motion_rev_day": 13.11259304
    },
    {
      "epoch": "2026-04-05T13:12:14.998176Z",
      "apogee_km": 1219.5579980940984,
      "perigee_km": 1217.0282349366971,
      "latitude_deg": -8.696172292186548e-06,
      "longitude_deg": 3.5012386561093694,
      "height_km": 1221.0876946117419,
      "semi_major_axis_km": 7596.4301165153975,
      "eccentricity": 0.00016651,
      "inclination_deg": 87.8929,
      "raan_deg": 35.4179,
      "arg_perigee_deg": 85.8451,
      "mean_anomaly_deg": 274.2867,
      "mean_motion_rev_day": 13.11258878
    },
    {
      "epoch": "2026-04-05T20:31:46.399296Z",
      "apogee_km": 1219.5605269494044,
      "perigee_km": 1217.0310667567082,
      "latitude_deg": -6.875793210209358e-06,
      "longitude_deg": -106.74104286838916,
      "height_km": 1221.0908605352442,
      "semi_major_axis_km": 7596.432796853056,
      "eccentricity": 0.00016649,
      "inclination_deg": 87.8929,
      "raan_deg": 35.3573,
      "arg_perigee_deg": 85.8667,
      "mean_anomaly_deg": 274.2651,
      "mean_motion_rev_day": 13.11258184
    },
    {
      "epoch": "2026-04-07T12:48:57.877344Z",
      "apogee_km": 1219.2052561373466,
      "perigee_km": 1216.675610430515,
      "latitude_deg": -1.6318944418153072e-05,
      "longitude_deg": 6.973418624826102,
      "height_km": 1220.7372655545244,
      "semi_major_axis_km": 7596.077433283931,
      "eccentricity": 0.00016651,
      "inclination_deg": 87.8927,
      "raan_deg": 35.0241,
      "arg_perigee_deg": 85.9412,
      "mean_anomaly_deg": 274.1906,
      "mean_motion_rev_day": 13.11350201
    },
    {
      "epoch": "2026-04-07T18:18:34.948800Z",
      "apogee_km": 1219.1761981687923,
      "perigee_km": 1216.6801311556846,
      "latitude_deg": -3.843517066199243e-05,
      "longitude_deg": -75.70196266265269,
      "height_km": 1220.7053020264907,
      "semi_major_axis_km": 7596.065164662238,
      "eccentricity": 0.0001643,
      "inclination_deg": 87.8927,
      "raan_deg": 34.9788,
      "arg_perigee_deg": 84.9773,
      "mean_anomaly_deg": 275.1542,
      "mean_motion_rev_day": 13.11353378
    }
  ]
}